KUIPER-00104            
1 65142U 25171L   25266.53568904  .00074706  00000+0  20668-2 0  9992
2 65142  51.8774 197.2362 0003269 298.2863  61.7793 15.36328470  7852
KUIPER-00105            
1 65143U 25171M   25266.00022394  .00078860  00000+0  21347-2 0  9993
2 65143  51.8762 199.6462 0004810 262.4902  97.5538 15.36974654  7784
KUIPER-00106            
1 65144U 25171N   25267.00002315 -.00661200  00000+0 -25943-1 0  9999
2 65144  51.8775 195.2590 0004547 265.7053 349.6921 15.27681802  4316
KUIPER-00107            
1 65145U 25171P   25266.20722935  .00052827  00000+0  14619-2 0  9994
2 65145  51.8772 198.7841 0004379 290.6503  69.4013 15.36474402  7814
KUIPER-00108            
1 65146U 25171Q   25266.54426336  .00050128  00000+0  14070-2 0  9991
2 65146  51.8775 197.2923 0004264 311.4550  48.6069 15.36056741  7867
KUIPER-00109            
1 65147U 25171R   25266.20228430  .00079342  00000+0  21669-2 0  9991
2 65147  51.8765 198.7455 0004072 284.5624  75.4911 15.36699093  7803
KUIPER-00110            
1 65148U 25171S   25267.00002315  .00013420  00000+0  44090-3 0  9992
2 65148  51.8789 194.9774 0004187 291.2372 116.5559 15.31855714  5345
KUIPER-00111            
1 65149U 25171T   25267.00002315 -.01182462  00000+0 -53434-1 0  9999
2 65149  51.8812 195.7024 0005686 295.3563 135.2071 15.23251811  4651
